ATLAS CENTAUR R/B       
1 06155U 72065B   26087.67930588  .00001415  00000+0  19558-3 0  9997
2 06155  35.0009 194.4615 0033367 171.0902 189.0396 14.77739861844070
SL-8 R/B                
1 08459U 75112B   26087.84048491  .00000231  00000+0  84417-4 0  9996
2 08459  74.0629 343.6865 0014552  69.0299 291.2411 14.38214611634625
SL-3 R/B                
1 10114U 77057B   26087.94527202  .00015655  00000+0  32200-3 0  9998
2 10114  97.5794 260.7249 0006762 204.7255 155.3671 15.46035287671302
SEASAT 1                
1 10967U 78064A   26087.93340493  .00000279  00000+0  11627-3 0  9993
2 10967 108.0076 165.8775 0002649 276.3147  83.7697 14.46175833509294
SL-14 R/B               
1 11267U 79011B   26087.69524834  .00000741  00000+0  70582-4 0  9996
2 11267  82.5209  78.5303 0015960   0.1104   0.0117 14.91932161531610
SL-8 R/B                
1 11574U 79089B   26087.88863195  .00000368  00000+0  11917-3 0  9990
2 11574  74.0686  55.5005 0016760 225.7345 134.2437 14.42362504438874
SL-14 R/B               
1 11672U 80005B   26087.92213246  .00000642  00000+0  62315-4 0  9994
2 11672  82.5113 288.9885 0017233  98.5881 261.7292 14.90951746479355
SL-8 R/B                
1 12139U 81003B   26087.53922091  .00025724  00000+0  64441-3 0  9993
2 12139  82.9333 272.5822 0260927 113.0656 249.8316 15.11794620317529
SL-3 R/B                
1 12465U 81046B   26087.85969758  .00013365  00000+0  30621-3 0  9999
2 12465  81.2282 266.7125 0018233 314.3943  45.5806 15.42456015441387
SL-3 R/B                
1 12904U 81103B   26087.84429121  .00005985  00000+0  26364-3 0  9993
2 12904  81.1606 190.9625 0012717 217.7804 142.2536 15.21597488976149
SL-3 R/B                
1 13068U 82013B   26087.91040504  .00003854  00000+0  16553-3 0  9990
2 13068  81.1738 138.2415 0023504 114.3531 246.0159 15.22184769407276
SL-3 R/B                
1 13154U 82039B   26087.87208310  .00002994  00000+0  18030-3 0  9996
2 13154  81.1567 193.8437 0028616 261.0052  98.7935 15.10185827384530
