CCSDS_OMM_VERS = 2.0
CREATION_DATE  = 
ORIGINATOR     = 

OBJECT_NAME    = ATLAS CENTAUR R/B
OBJECT_ID      = 1972-065B
CENTER_NAME    = EARTH
REF_FRAME      = TEME
TIME_SYSTEM    = UTC
MEAN_ELEMENT_THEORY = SGP/SGP4

EPOCH          = 2026-03-28T16:18:12.028032
MEAN_MOTION    = 14.77739861
ECCENTRICITY   = .00333671
INCLINATION    = 35.0009
RA_OF_ASC_NODE = 194.4615
ARG_OF_PERICENTER = 171.0902
MEAN_ANOMALY   = 189.0396

EPHEMERIS_TYPE = 0
CLASSIFICATION_TYPE = U
NORAD_CAT_ID   = 6155
ELEMENT_SET_NO = 999
REV_AT_EPOCH   = 84407
BSTAR          = .19557868E-3
MEAN_MOTION_DOT = .1415E-4
MEAN_MOTION_DDOT = 0

CCSDS_OMM_VERS = 2.0
CREATION_DATE  = 
ORIGINATOR     = 

OBJECT_NAME    = SL-8 R/B
OBJECT_ID      = 1975-112B
CENTER_NAME    = EARTH
REF_FRAME      = TEME
TIME_SYSTEM    = UTC
MEAN_ELEMENT_THEORY = SGP/SGP4

EPOCH          = 2026-03-28T20:10:17.896224
MEAN_MOTION    = 14.38214611
ECCENTRICITY   = .00145529
INCLINATION    = 74.0629
RA_OF_ASC_NODE = 343.6865
ARG_OF_PERICENTER = 69.0299
MEAN_ANOMALY   = 291.2411

EPHEMERIS_TYPE = 0
CLASSIFICATION_TYPE = U
NORAD_CAT_ID   = 8459
ELEMENT_SET_NO = 999
REV_AT_EPOCH   = 63462
BSTAR          = .84416978E-4
MEAN_MOTION_DOT = .231E-5
MEAN_MOTION_DDOT = 0

CCSDS_OMM_VERS = 2.0
CREATION_DATE  = 
ORIGINATOR     = 

OBJECT_NAME    = SL-3 R/B
OBJECT_ID      = 1977-057B
CENTER_NAME    = EARTH
REF_FRAME      = TEME
TIME_SYSTEM    = UTC
MEAN_ELEMENT_THEORY = SGP/SGP4

EPOCH          = 2026-03-28T22:41:11.502528
MEAN_MOTION    = 15.46035287
ECCENTRICITY   = .00067625
INCLINATION    = 97.5794
RA_OF_ASC_NODE = 260.7249
ARG_OF_PERICENTER = 204.7255
MEAN_ANOMALY   = 155.3671

EPHEMERIS_TYPE = 0
CLASSIFICATION_TYPE = U
NORAD_CAT_ID   = 10114
ELEMENT_SET_NO = 999
REV_AT_EPOCH   = 67130
BSTAR          = .32200172E-3
MEAN_MOTION_DOT = .15655E-3
MEAN_MOTION_DDOT = 0

CCSDS_OMM_VERS = 2.0
CREATION_DATE  = 
ORIGINATOR     = 

OBJECT_NAME    = SEASAT 1
OBJECT_ID      = 1978-064A
CENTER_NAME    = EARTH
REF_FRAME      = TEME
TIME_SYSTEM    = UTC
MEAN_ELEMENT_THEORY = SGP/SGP4

EPOCH          = 2026-03-28T22:24:06.185952
MEAN_MOTION    = 14.46175833
ECCENTRICITY   = .00026491
INCLINATION    = 108.0076
RA_OF_ASC_NODE = 165.8775
ARG_OF_PERICENTER = 276.3147
MEAN_ANOMALY   = 83.7697

EPHEMERIS_TYPE = 0
CLASSIFICATION_TYPE = U
NORAD_CAT_ID   = 10967
ELEMENT_SET_NO = 999
REV_AT_EPOCH   = 50929
BSTAR          = .11626709E-3
MEAN_MOTION_DOT = .279E-5
MEAN_MOTION_DDOT = 0

CCSDS_OMM_VERS = 2.0
CREATION_DATE  = 
ORIGINATOR     = 

OBJECT_NAME    = SL-14 R/B
OBJECT_ID      = 1979-011B
CENTER_NAME    = EARTH
REF_FRAME      = TEME
TIME_SYSTEM    = UTC
MEAN_ELEMENT_THEORY = SGP/SGP4

EPOCH          = 2026-03-28T16:41:09.456576
MEAN_MOTION    = 14.91932161
ECCENTRICITY   = .00159609
INCLINATION    = 82.5209
RA_OF_ASC_NODE = 78.5303
ARG_OF_PERICENTER = 0.1104
MEAN_ANOMALY   = 0.0117

EPHEMERIS_TYPE = 0
CLASSIFICATION_TYPE = U
NORAD_CAT_ID   = 11267
ELEMENT_SET_NO = 999
REV_AT_EPOCH   = 53161
BSTAR          = .70582012E-4
MEAN_MOTION_DOT = .741E-5
MEAN_MOTION_DDOT = 0

CCSDS_OMM_VERS = 2.0
CREATION_DATE  = 
ORIGINATOR     = 

OBJECT_NAME    = SL-8 R/B
OBJECT_ID      = 1979-089B
CENTER_NAME    = EARTH
REF_FRAME      = TEME
TIME_SYSTEM    = UTC
MEAN_ELEMENT_THEORY = SGP/SGP4

EPOCH          = 2026-03-28T21:19:37.800480
MEAN_MOTION    = 14.42362504
ECCENTRICITY   = .00167603
INCLINATION    = 74.0686
RA_OF_ASC_NODE = 55.5005
ARG_OF_PERICENTER = 225.7345
MEAN_ANOMALY   = 134.2437

EPHEMERIS_TYPE = 0
CLASSIFICATION_TYPE = U
NORAD_CAT_ID   = 11574
ELEMENT_SET_NO = 999
REV_AT_EPOCH   = 43887
BSTAR          = .11916718E-3
MEAN_MOTION_DOT = .368E-5
MEAN_MOTION_DDOT = 0

CCSDS_OMM_VERS = 2.0
CREATION_DATE  = 
ORIGINATOR     = 

OBJECT_NAME    = SL-14 R/B
OBJECT_ID      = 1980-005B
CENTER_NAME    = EARTH
REF_FRAME      = TEME
TIME_SYSTEM    = UTC
MEAN_ELEMENT_THEORY = SGP/SGP4

EPOCH          = 2026-03-28T22:07:52.244544
MEAN_MOTION    = 14.90951746
ECCENTRICITY   = .00172334
INCLINATION    = 82.5113
RA_OF_ASC_NODE = 288.9885
ARG_OF_PERICENTER = 98.5881
MEAN_ANOMALY   = 261.7292

EPHEMERIS_TYPE = 0
CLASSIFICATION_TYPE = U
NORAD_CAT_ID   = 11672
ELEMENT_SET_NO = 999
REV_AT_EPOCH   = 47935
BSTAR          = .62314912E-4
MEAN_MOTION_DOT = .642E-5
MEAN_MOTION_DDOT = 0

CCSDS_OMM_VERS = 2.0
CREATION_DATE  = 
ORIGINATOR     = 

OBJECT_NAME    = SL-8 R/B
OBJECT_ID      = 1981-003B
CENTER_NAME    = EARTH
REF_FRAME      = TEME
TIME_SYSTEM    = UTC
MEAN_ELEMENT_THEORY = SGP/SGP4

EPOCH          = 2026-03-28T12:56:28.686624
MEAN_MOTION    = 15.11794620
ECCENTRICITY   = .02609279
INCLINATION    = 82.9333
RA_OF_ASC_NODE = 272.5822
ARG_OF_PERICENTER = 113.0656
MEAN_ANOMALY   = 249.8316

EPHEMERIS_TYPE = 0
CLASSIFICATION_TYPE = U
NORAD_CAT_ID   = 12139
ELEMENT_SET_NO = 999
REV_AT_EPOCH   = 31752
BSTAR          = .64441346E-3
MEAN_MOTION_DOT = .25724E-3
MEAN_MOTION_DDOT = 0

CCSDS_OMM_VERS = 2.0
CREATION_DATE  = 
ORIGINATOR     = 

OBJECT_NAME    = SL-3 R/B
OBJECT_ID      = 1981-046B
CENTER_NAME    = EARTH
REF_FRAME      = TEME
TIME_SYSTEM    = UTC
MEAN_ELEMENT_THEORY = SGP/SGP4

EPOCH          = 2026-03-28T20:37:57.870912
MEAN_MOTION    = 15.42456015
ECCENTRICITY   = .0018233
INCLINATION    = 81.2282
RA_OF_ASC_NODE = 266.7125
ARG_OF_PERICENTER = 314.3943
MEAN_ANOMALY   = 45.5806

EPHEMERIS_TYPE = 0
CLASSIFICATION_TYPE = U
NORAD_CAT_ID   = 12465
ELEMENT_SET_NO = 999
REV_AT_EPOCH   = 44138
BSTAR          = .30621288E-3
MEAN_MOTION_DOT = .13365E-3
MEAN_MOTION_DDOT = 0

CCSDS_OMM_VERS = 2.0
CREATION_DATE  = 
ORIGINATOR     = 

OBJECT_NAME    = SL-3 R/B
OBJECT_ID      = 1981-103B
CENTER_NAME    = EARTH
REF_FRAME      = TEME
TIME_SYSTEM    = UTC
MEAN_ELEMENT_THEORY = SGP/SGP4

EPOCH          = 2026-03-28T20:15:46.760544
MEAN_MOTION    = 15.21597488
ECCENTRICITY   = .0012717
INCLINATION    = 81.1606
RA_OF_ASC_NODE = 190.9625
ARG_OF_PERICENTER = 217.7804
MEAN_ANOMALY   = 142.2536

EPHEMERIS_TYPE = 0
CLASSIFICATION_TYPE = U
NORAD_CAT_ID   = 12904
ELEMENT_SET_NO = 999
REV_AT_EPOCH   = 97614
BSTAR          = .26364451E-3
MEAN_MOTION_DOT = .5985E-4
MEAN_MOTION_DDOT = 0

CCSDS_OMM_VERS = 2.0
CREATION_DATE  = 
ORIGINATOR     = 

OBJECT_NAME    = SL-3 R/B
OBJECT_ID      = 1982-013B
CENTER_NAME    = EARTH
REF_FRAME      = TEME
TIME_SYSTEM    = UTC
MEAN_ELEMENT_THEORY = SGP/SGP4

EPOCH          = 2026-03-28T21:50:58.995456
MEAN_MOTION    = 15.22184769
ECCENTRICITY   = .00235043
INCLINATION    = 81.1738
RA_OF_ASC_NODE = 138.2415
ARG_OF_PERICENTER = 114.3531
MEAN_ANOMALY   = 246.0159

EPHEMERIS_TYPE = 0
CLASSIFICATION_TYPE = U
NORAD_CAT_ID   = 13068
ELEMENT_SET_NO = 999
REV_AT_EPOCH   = 40727
BSTAR          = .16553141E-3
MEAN_MOTION_DOT = .3854E-4
MEAN_MOTION_DDOT = 0

CCSDS_OMM_VERS = 2.0
CREATION_DATE  = 
ORIGINATOR     = 

OBJECT_NAME    = SL-3 R/B
OBJECT_ID      = 1982-039B
CENTER_NAME    = EARTH
REF_FRAME      = TEME
TIME_SYSTEM    = UTC
MEAN_ELEMENT_THEORY = SGP/SGP4

EPOCH          = 2026-03-28T20:55:47.979840
MEAN_MOTION    = 15.10185827
ECCENTRICITY   = .00286162
INCLINATION    = 81.1567
RA_OF_ASC_NODE = 193.8437
ARG_OF_PERICENTER = 261.0052
MEAN_ANOMALY   = 98.7935

EPHEMERIS_TYPE = 0
CLASSIFICATION_TYPE = U
NORAD_CAT_ID   = 13154
ELEMENT_SET_NO = 999
REV_AT_EPOCH   = 38453
BSTAR          = .18030237E-3
MEAN_MOTION_DOT = .2994E-4
MEAN_MOTION_DDOT = 0

